STARLINK-31560          
1 59361U 24060P   26157.17458483  .00000893  00000+0  41995-4 0  9998
2 59361  43.0031 120.2923 0001893 276.7406  83.3230 15.27580948123597
STARLINK-31571          
1 59362U 24060Q   26157.17715743  .00000484  00000+0  27109-4 0  9991
2 59362  43.0029 120.3119 0001595 266.7013  93.3656 15.27579030123598
STARLINK-31553          
1 59363U 24060R   26157.55891619  .00034782  00000+0  12734-2 0  9995
2 59363  43.0098 111.0893 0002406 250.8550 109.2041 15.27427021123736
STARLINK-31547          
1 59364U 24060S   26157.54638203 -.00001280  00000+0 -37043-4 0  9994
2 59364  43.0010 106.6779 0000720 257.7514 102.3257 15.27564415123784
STARLINK-31537          
1 59365U 24060T   26157.57718317  .00000165  00000+0  15524-4 0  9992
2 59365  43.0010 118.1534 0001208 274.4391  85.6323 15.27577895123652
STARLINK-31451          
1 59366U 24060U   26157.59502797  .00000058  00000+0  11645-4 0  9999
2 59366  43.0028 117.4330 0001078 274.4877  85.5852 15.27577175123660
STARLINK-31428          
1 59367U 24060V   26156.62580027  .00000216  00000+0  17376-4 0  9998
2 59367  43.0045 123.0605 0001198 275.8323  84.2392 15.27575718123512
STARLINK-31419          
1 59368U 24060W   26156.63222031 -.00000253  00000+0  32418-6 0  9996
2 59368  43.0031 123.1009 0001585 257.9615 102.1059 15.27576647123514
STARLINK-31583          
1 59369U 24060X   26156.59383801  .00000379  00000+0  23314-4 0  9996
2 59369  43.0051 112.4332 0001276 265.6518  94.4188 15.27579440123635
STARLINK-31461          
1 59370U 24060Y   26157.58619564  .00000371  00000+0  22999-4 0  9996
2 59370  43.0039 106.9758 0001248 261.5904  98.4806 15.27582506123724
STARLINK-31641          
1 59374U 24062A   26157.56288228  .00001000  00000+0  40726-4 0  9997
2 59374  53.1594 204.6147 0001243  70.1692 289.9444 15.34395756123246
STARLINK-31430          
1 59375U 24062B   26157.40744952  .00000576  00000+0  28169-4 0  9996
2 59375  53.1599 205.7758 0001073  77.6611 282.4511 15.34394320123223
STARLINK-31695          
1 59376U 24062C   26157.58337963  .00052482  00000+0  15983-2 0  9997
2 59376  53.1598 202.7458 0001171  68.0803 221.4735 15.33501951  5851
STARLINK-31716          
1 59377U 24062D   26157.17323654 -.00000459  00000+0 -33913-5 0  9990
2 59377  53.1594 156.0162 0001177  82.8168 277.2966 15.30189965123855
STARLINK-31710          
1 59378U 24062E   26157.38795606  .00003801  00000+0  12360-3 0  9997
2 59378  53.1597 203.5157 0001350  97.1733 262.9423 15.34396097123210
STARLINK-31698          
1 59379U 24062F   26157.44047234 -.00000051  00000+0  96152-5 0  9990
2 59379  53.1592 203.1468 0001301  75.3652 284.7495 15.34394824123229
STARLINK-31680          
1 59380U 24062G   26157.43891910  .00000635  00000+0  29920-4 0  9994
2 59380  53.1586 205.2557 0000947 116.0964 244.0136 15.34393897123196
STARLINK-31713          
1 59381U 24062H   26157.43052134 -.00002412  00000+0 -60340-4 0  9990
2 59381  53.1591 205.2067 0000879  44.4688 315.6385 15.34375476123194
STARLINK-31705          
1 59382U 24062J   26157.39438661  .00035418  00000+0  10583-2 0  9991
2 59382  53.1596 203.5558 0000119 346.4330  13.6669 15.34284718123213
STARLINK-31715          
1 59384U 24062L   26157.39290805  .00000592  00000+0  32100-4 0  9995
2 59384  53.1590 203.5489 0001129  87.3929 272.7201 15.30194752123257
STARLINK-31717          
1 59385U 24062M   26157.45098099  .00001524  00000+0  56233-4 0  9993
2 59385  53.1607 203.1986 0001084  85.6050 274.5076 15.34392920123252
STARLINK-31688          
1 59386U 24062N   26157.43681452  .00001462  00000+0  54405-4 0  9993
2 59386  53.1599 205.2501 0001182  85.2281 274.8856 15.34399397123197
STARLINK-31714          
1 59387U 24062P   26157.44468077  .00001646  00000+0  59856-4 0  9990
2 59387  53.1590 203.1594 0000926  73.3875 286.7229 15.34391848123212
STARLINK-31643          
1 59388U 24062Q   26157.44678599  .00000226  00000+0  17814-4 0  9994
2 59388  53.1599 203.1747 0001186  93.2245 266.8893 15.34392165123267
STARLINK-31647          
1 59389U 24062R   26157.58337963  .00055040  00000+0  16749-2 0  9995
2 59389  53.1584 203.0513 0001134  74.5026  77.3425 15.33506108  5925
STARLINK-31649          
1 59390U 24062S   26157.58337963  .00064140  00000+0  18951-2 0  9995
2 59390  53.1602 202.6964 0001435  42.1219 271.4691 15.34369342  5911
STARLINK-31644          
1 59391U 24062T   26157.40534262  .00000314  00000+0  20414-4 0  9990
2 59391  53.1593 205.7631 0001121 130.3955 229.7145 15.34393611123226
STARLINK-31626          
1 59392U 24062U   26157.38974268  .00001142  00000+0  50665-4 0  9993
2 59392  53.1594 203.5271 0000911  72.4154 287.6946 15.30196854123258
STARLINK-31443          
1 59393U 24062V   26157.38526287  .00001170  00000+0  45748-4 0  9995
2 59393  53.1585 189.8303 0001005  76.8046 283.3069 15.34397510123440
STARLINK-31607          
1 59394U 24062W   26157.39607427 -.00000969  00000+0 -20630-4 0  9993
2 59394  53.1592 203.5650 0001262  87.1961 272.9184 15.30173866123246
