OBJECT_NAME,OBJECT_ID,EPOCH,MEAN_MOTION,ECCENTRICITY,INCLINATION,RA_OF_ASC_NODE,ARG_OF_PERICENTER,MEAN_ANOMALY,EPHEMERIS_TYPE,CLASSIFICATION_TYPE,NORAD_CAT_ID,ELEMENT_SET_NO,REV_AT_EPOCH,BSTAR,MEAN_MOTION_DOT,MEAN_MOTION_DDOT
STARLINK-31560,2024-060P,2026-06-06T04:11:24.129312,15.27580948,.00018931,43.0031,120.2923,276.7406,83.3230,0,U,59361,999,12359,.41994919E-4,.893E-5,0
STARLINK-31571,2024-060Q,2026-06-06T04:15:06.401952,15.27579030,.0001595,43.0029,120.3119,266.7013,93.3656,0,U,59362,999,12359,.27109E-4,.484E-5,0
STARLINK-31553,2024-060R,2026-06-06T13:24:50.358816,15.27427021,.0002406,43.0098,111.0893,250.8550,109.2041,0,U,59363,999,12373,.12734156E-2,.34782E-3,0
STARLINK-31547,2024-060S,2026-06-06T13:06:47.407392,15.27564415,.00007204,43.0010,106.6779,257.7514,102.3257,0,U,59364,999,12378,-.37042901E-4,-.128E-4,0
STARLINK-31537,2024-060T,2026-06-06T13:51:08.625888,15.27577895,.00012088,43.0010,118.1534,274.4391,85.6323,0,U,59365,999,12365,.1552374E-4,.165E-5,0
STARLINK-31451,2024-060U,2026-06-06T14:16:50.416608,15.27577175,.00010786,43.0028,117.4330,274.4877,85.5852,0,U,59366,999,12366,.11645416E-4,.58E-6,0
STARLINK-31428,2024-060V,2026-06-05T15:01:09.143328,15.27575718,.00011983,43.0045,123.0605,275.8323,84.2392,0,U,59367,999,12351,.17375879E-4,.216E-5,0
STARLINK-31419,2024-060W,2026-06-05T15:10:23.834784,15.27576647,.00015855,43.0031,123.1009,257.9615,102.1059,0,U,59368,999,12351,.324177E-6,-.253E-5,0
STARLINK-31583,2024-060X,2026-06-05T14:15:07.604064,15.27579440,.00012761,43.0051,112.4332,265.6518,94.4188,0,U,59369,999,12363,.23314123E-4,.379E-5,0
STARLINK-31461,2024-060Y,2026-06-06T14:04:07.303296,15.27582506,.00012484,43.0039,106.9758,261.5904,98.4806,0,U,59370,999,12372,.22999087E-4,.371E-5,0
STARLINK-31641,2024-062A,2026-06-06T13:30:33.028992,15.34395756,.00012432,53.1594,204.6147,70.1692,289.9444,0,U,59374,999,12324,.40725604E-4,.1E-4,0
STARLINK-31430,2024-062B,2026-06-06T09:46:43.638528,15.34394320,.00010733,53.1599,205.7758,77.6611,282.4511,0,U,59375,999,12322,.28169196E-4,.576E-5,0
STARLINK-31695,2024-062C,2026-06-06T14:00:04.000032,15.33501951,.00011711,53.1598,202.7458,68.0803,221.4735,0,U,59376,999,585,.15983027E-2,.52482E-3,0
STARLINK-31716,2024-062D,2026-06-06T04:09:27.637056,15.30189965,.0001177,53.1594,156.0162,82.8168,277.2966,0,U,59377,999,12385,-.3391338E-5,-.459E-5,0
STARLINK-31710,2024-062E,2026-06-06T09:18:39.403584,15.34396097,.00013507,53.1597,203.5157,97.1733,262.9423,0,U,59378,999,12321,.12360144E-3,.3801E-4,0
STARLINK-31698,2024-062F,2026-06-06T10:34:16.810176,15.34394824,.00013011,53.1592,203.1468,75.3652,284.7495,0,U,59379,999,12322,.9615167E-5,-.51E-6,0
STARLINK-31680,2024-062G,2026-06-06T10:32:02.610240,15.34393897,.00009475,53.1586,205.2557,116.0964,244.0136,0,U,59380,999,12319,.29919686E-4,.635E-5,0
STARLINK-31713,2024-062H,2026-06-06T10:19:57.043776,15.34375476,.00008799,53.1591,205.2067,44.4688,315.6385,0,U,59381,999,12319,-.60339553E-4,-.2412E-4,0
STARLINK-31705,2024-062J,2026-06-06T09:27:55.003104,15.34284718,.00001196,53.1596,203.5558,346.4330,13.6669,0,U,59382,999,12321,.10582733E-2,.35418E-3,0
STARLINK-31715,2024-062L,2026-06-06T09:25:47.255520,15.30194752,.00011297,53.1590,203.5489,87.3929,272.7201,0,U,59384,999,12325,.32099508E-4,.592E-5,0
STARLINK-31717,2024-062M,2026-06-06T10:49:24.757536,15.34392920,.0001084,53.1607,203.1986,85.6050,274.5076,0,U,59385,999,12325,.5623272E-4,.1524E-4,0
STARLINK-31688,2024-062N,2026-06-06T10:29:00.774528,15.34399397,.00011821,53.1599,205.2501,85.2281,274.8856,0,U,59386,999,12319,.54404752E-4,.1462E-4,0
STARLINK-31714,2024-062P,2026-06-06T10:40:20.418528,15.34391848,.00009265,53.1590,203.1594,73.3875,286.7229,0,U,59387,999,12321,.59856141E-4,.1646E-4,0
STARLINK-31643,2024-062Q,2026-06-06T10:43:22.309536,15.34392165,.00011863,53.1599,203.1747,93.2245,266.8893,0,U,59388,999,12326,.17813772E-4,.226E-5,0
STARLINK-31647,2024-062R,2026-06-06T14:00:04.000032,15.33506108,.00011341,53.1584,203.0513,74.5026,77.3425,0,U,59389,999,592,.1674869E-2,.5504E-3,0
STARLINK-31649,2024-062S,2026-06-06T14:00:04.000032,15.34369342,.0001435,53.1602,202.6964,42.1219,271.4691,0,U,59390,999,591,.18951375E-2,.6414E-3,0
STARLINK-31644,2024-062T,2026-06-06T09:43:41.602368,15.34393611,.00011215,53.1593,205.7631,130.3955,229.7145,0,U,59391,999,12322,.20414358E-4,.314E-5,0
STARLINK-31626,2024-062U,2026-06-06T09:21:13.767552,15.30196854,.00009118,53.1594,203.5271,72.4154,287.6946,0,U,59392,999,12325,.50665039E-4,.1142E-4,0
STARLINK-31443,2024-062V,2026-06-06T09:14:46.711968,15.34397510,.00010054,53.1585,189.8303,76.8046,283.3069,0,U,59393,999,12344,.45747785E-4,.117E-4,0
STARLINK-31607,2024-062W,2026-06-06T09:30:20.816928,15.30173866,.00012624,53.1592,203.5650,87.1961,272.9184,0,U,59394,999,12324,-.20629568E-4,-.969E-5,0
